{
  "type": "FeatureCollection",
  "features": [
    {
      "type": "Feature",
      "properties": {
        "norad_id": 28051,
        "name": "IRS-P6 (RESOURCESAT-1)",
        "group": "resource",
        "lat": 44.976723477686505,
        "lon": 27.39065510917367,
        "alt_km": 781.8020158876234,
        "timestamp": "2025-12-21T16:47:54.385215+00:00",
        "meta_object_name": "IRS-P6 (RESOURCESAT-1)",
        "meta_object_id": "2003-046A",
        "meta_epoch": "2025-12-21T13:57:16.142976",
        "meta_mean_motion": 14.36078838,
        "meta_eccentricity": 0.0064704,
        "meta_inclination": 98.2167,
        "meta_ra_of_asc_node": 35.5788,
        "meta_arg_of_pericenter": 154.2189,
        "meta_mean_anomaly": 359.8713,
        "meta_ephemeris_type": 0,
        "meta_classification_type": "U",
        "meta_norad_cat_id": 28051,
        "meta_element_set_no": 999,
        "meta_rev_at_epoch": 15503,
        "meta_bstar": 9.4151e-05,
        "meta_mean_motion_dot": 2.4e-06,
        "meta_mean_motion_ddot": 0,
        "tle_line1": "1 28051U 03046A   25355.58143684  .00000240  00000+0  94151-4 0  9997",
        "tle_line2": "2 28051  98.2167  35.5788 0064704 154.2189 359.8713 14.36078838155036"
      },
      "geometry": {
        "type": "Point",
        "coordinates": [
          27.39065510917367,
          44.976723477686505
        ]
      }
    },
    {
      "type": "Feature",
      "properties": {
        "norad_id": 28220,
        "name": "SHIYAN-1 (SY-1)",
        "group": "resource",
        "lat": 8.826479516837354,
        "lon": 56.53372846081329,
        "alt_km": 481.9996105267164,
        "timestamp": "2025-12-21T16:47:54.385226+00:00",
        "meta_object_name": "SHIYAN-1 (SY-1)",
        "meta_object_id": "2004-012A",
        "meta_epoch": "2025-12-21T04:11:20.401152",
        "meta_mean_motion": 15.28343782,
        "meta_eccentricity": 0.00052177,
        "meta_inclination": 97.8926,
        "meta_ra_of_asc_node": 57.2116,
        "meta_arg_of_pericenter": 290.4683,
        "meta_mean_anomaly": 69.5995,
        "meta_ephemeris_type": 0,
        "meta_classification_type": "U",
        "meta_norad_cat_id": 28220,
        "meta_element_set_no": 999,
        "meta_rev_at_epoch": 18385,
        "meta_bstar": 0.00033294584,
        "meta_mean_motion_dot": 9.113e-05,
        "meta_mean_motion_ddot": 0,
        "tle_line1": "1 28220U 04012A   25355.17454168  .00009113  00000+0  33295-3 0  9995",
        "tle_line2": "2 28220  97.8926  57.2116 0005217 290.4683  69.5995 15.28343782183857"
      },
      "geometry": {
        "type": "Point",
        "coordinates": [
          56.53372846081329,
          8.826479516837354
        ]
      }
    },
    {
      "type": "Feature",
      "properties": {
        "norad_id": 28376,
        "name": "AURA",
        "group": "resource",
        "lat": 34.223921843341,
        "lon": -59.74382992965789,
        "alt_km": 687.3172082273304,
        "timestamp": "2025-12-21T16:47:54.385237+00:00",
        "meta_object_name": "AURA",
        "meta_object_id": "2004-026A",
        "meta_epoch": "2025-12-21T11:42:33.285600",
        "meta_mean_motion": 14.60965043,
        "meta_eccentricity": 0.0001386,
        "meta_inclination": 98.3197,
        "meta_ra_of_asc_node": 305.7556,
        "meta_arg_of_pericenter": 92.468,
        "meta_mean_anomaly": 267.6679,
        "meta_ephemeris_type": 0,
        "meta_classification_type": "U",
        "meta_norad_cat_id": 28376,
        "meta_element_set_no": 999,
        "meta_rev_at_epoch": 14026,
        "meta_bstar": 0.00017271,
        "meta_mean_motion_dot": 7.98e-06,
        "meta_mean_motion_ddot": 0,
        "tle_line1": "1 28376U 04026A   25355.48788525  .00000798  00000+0  17271-3 0  9999",
        "tle_line2": "2 28376  98.3197 305.7556 0001386  92.4680 267.6679 14.60965043140267"
      },
      "geometry": {
        "type": "Point",
        "coordinates": [
          -59.74382992965789,
          34.223921843341
        ]
      }
    },
    {
      "type": "Feature",
      "properties": {
        "norad_id": 28649,
        "name": "IRS-P5 (CARTOSAT-1)",
        "group": "resource",
        "lat": 62.77394622564834,
        "lon": -143.34906904420097,
        "alt_km": 590.2793256966643,
        "timestamp": "2025-12-21T16:47:54.385248+00:00",
        "meta_object_name": "IRS-P5 (CARTOSAT-1)",
        "meta_object_id": "2005-017A",
        "meta_epoch": "2025-12-21T01:46:39.296352",
        "meta_mean_motion": 14.90430022,
        "meta_eccentricity": 7.415e-05,
        "meta_inclination": 97.5484,
        "meta_ra_of_asc_node": 21.1176,
        "meta_arg_of_pericenter": 52.3695,
        "meta_mean_anomaly": 307.7591,
        "meta_ephemeris_type": 0,
        "meta_classification_type": "U",
        "meta_norad_cat_id": 28649,
        "meta_element_set_no": 999,
        "meta_rev_at_epoch": 11728,
        "meta_bstar": 0.00011252547,
        "meta_mean_motion_dot": 1.044e-05,
        "meta_mean_motion_ddot": 0,
        "tle_line1": "1 28649U 05017A   25355.07406593  .00001044  00000+0  11253-3 0  9999",
        "tle_line2": "2 28649  97.5484  21.1176 0000741  52.3695 307.7591 14.90430022117284"
      },
      "geometry": {
        "type": "Point",
        "coordinates": [
          -143.34906904420097,
          62.77394622564834
        ]
      }
    },
    {
      "type": "Feature",
      "properties": {
        "norad_id": 28893,
        "name": "SINAH 1",
        "group": "resource",
        "lat": -21.974734458749523,
        "lon": 127.64210073010541,
        "alt_km": 693.245022070947,
        "timestamp": "2025-12-21T16:47:54.385259+00:00",
        "meta_object_name": "SINAH 1",
        "meta_object_id": "2005-043D",
        "meta_epoch": "2025-12-21T11:58:43.695840",
        "meta_mean_motion": 14.63971064,
        "meta_eccentricity": 0.0015662,
        "meta_inclination": 98.2608,
        "meta_ra_of_asc_node": 124.08,
        "meta_arg_of_pericenter": 111.3874,
        "meta_mean_anomaly": 248.9001,
        "meta_ephemeris_type": 0,
        "meta_classification_type": "U",
        "meta_norad_cat_id": 28893,
        "meta_element_set_no": 999,
        "meta_rev_at_epoch": 7452,
        "meta_bstar": 7.5744e-05,
        "meta_mean_motion_dot": 3.48e-06,
        "meta_mean_motion_ddot": 0,
        "tle_line1": "1 28893U 05043D   25355.49911685  .00000348  00000+0  75744-4 0  9990",
        "tle_line2": "2 28893  98.2608 124.0800 0015662 111.3874 248.9001 14.63971064 74528"
      },
      "geometry": {
        "type": "Point",
        "coordinates": [
          127.64210073010541,
          -21.974734458749523
        ]
      }
    },
    {
      "type": "Feature",
      "properties": {
        "norad_id": 29079,
        "name": "EROS B",
        "group": "resource",
        "lat": 28.247001326760792,
        "lon": -63.306441224054296,
        "alt_km": 357.2551612253992,
        "timestamp": "2025-12-21T16:47:54.385270+00:00",
        "meta_object_name": "EROS B",
        "meta_object_id": "2006-014A",
        "meta_epoch": "2025-12-21T11:34:10.561152",
        "meta_mean_motion": 15.7091576,
        "meta_eccentricity": 0.0003611,
        "meta_inclination": 97.3463,
        "meta_ra_of_asc_node": 112.4898,
        "meta_arg_of_pericenter": 311.0639,
        "meta_mean_anomaly": 49.0311,
        "meta_ephemeris_type": 0,
        "meta_classification_type": "U",
        "meta_norad_cat_id": 29079,
        "meta_element_set_no": 999,
        "meta_rev_at_epoch": 9217,
        "meta_bstar": 0.0012426,
        "meta_mean_motion_dot": 0.00157438,
        "meta_mean_motion_ddot": 0,
        "tle_line1": "1 29079U 06014A   25355.48206668  .00157438  00000+0  12426-2 0  9992",
        "tle_line2": "2 29079  97.3463 112.4898 0003611 311.0639  49.0311 15.70915760 92176"
      },
      "geometry": {
        "type": "Point",
        "coordinates": [
          -63.306441224054296,
          28.247001326760792
        ]
      }
    },
    {
      "type": "Feature",
      "properties": {
        "norad_id": 29228,
        "name": "RESURS-DK 1",
        "group": "resource",
        "lat": 28.85884861800706,
        "lon": 90.30363954781538,
        "alt_km": 531.1879602010595,
        "timestamp": "2025-12-21T16:47:54.385280+00:00",
        "meta_object_name": "RESURS-DK 1",
        "meta_object_id": "2006-021A",
        "meta_epoch": "2025-12-21T08:43:27.721056",
        "meta_mean_motion": 15.12204563,
        "meta_eccentricity": 0.0006856,
        "meta_inclination": 69.9339,
        "meta_ra_of_asc_node": 79.5514,
        "meta_arg_of_pericenter": 251.4552,
        "meta_mean_anomaly": 108.5869,
        "meta_ephemeris_type": 0,
        "meta_classification_type": "U",
        "meta_norad_cat_id": 29228,
        "meta_element_set_no": 999,
        "meta_rev_at_epoch": 7568,
        "meta_bstar": 0.00012178,
        "meta_mean_motion_dot": 2.001e-05,
        "meta_mean_motion_ddot": 0,
        "tle_line1": "1 29228U 06021A   25355.36351529  .00002001  00000+0  12178-3 0  9990",
        "tle_line2": "2 29228  69.9339  79.5514 0006856 251.4552 108.5869 15.12204563 75686"
      },
      "geometry": {
        "type": "Point",
        "coordinates": [
          90.30363954781538,
          28.85884861800706
        ]
      }
    }
  ]
}